[{"OBJECT_NAME":"STARLINK-32702","OBJECT_ID":"2024-251A","EPOCH":"2026-03-09T23:35:51.139392","MEAN_MOTION":15.3022321,"ECCENTRICITY":0.00013632,"INCLINATION":53.1627,"RA_OF_ASC_NODE":331.0824,"ARG_OF_PERICENTER":65.2599,"MEAN_ANOMALY":294.8544,"EPHEMERIS_TYPE":0,"CLASSIFICATION_TYPE":"U","NORAD_CAT_ID":62432,"ELEMENT_SET_NO":999,"REV_AT_EPOCH":6803,"BSTAR":0.0011431202,"MEAN_MOTION_DOT":0.00033675,"MEAN_MOTION_DDOT":0},{"OBJECT_NAME":"FENGYUN 1C DEB","OBJECT_ID":"1999-025BZU","EPOCH":"2026-03-09T17:19:51.665664","MEAN_MOTION":15.28412118,"ECCENTRICITY":0.00188802,"INCLINATION":98.9598,"RA_OF_ASC_NODE":354.2029,"ARG_OF_PERICENTER":82.3682,"MEAN_ANOMALY":277.9697,"EPHEMERIS_TYPE":0,"CLASSIFICATION_TYPE":"U","NORAD_CAT_ID":31614,"ELEMENT_SET_NO":999,"REV_AT_EPOCH":97742,"BSTAR":0.011500831,"MEAN_MOTION_DOT":0.0033373,"MEAN_MOTION_DDOT":0}]
